H1 CPF  1  MCC 2022  8 10 10  7221 larets
H2  0304206 5557    27944 2022 08 09 23 45 00 2022 08 14 23 57 00   180 1 1  0 0 0
H9
10 0 59803 10620.000000 0     -2213085.642      -516886.018      6667415.730
10 0 59803 10800.000000 0     -3422905.212      -140885.708      6156212.241
10 0 59803 10980.000000 0     -4497413.750       270243.211      5418596.160
10 0 59803 11160.000000 0     -5396650.363       697409.968      4481626.826
10 0 59803 11340.000000 0     -6087584.602      1119973.514      3379742.875
10 0 59803 11520.000000 0     -6545392.134      1516706.564      2153496.050
10 0 59803 11700.000000 0     -6754403.098      1866815.734       848036.396
10 0 59803 11880.000000 0     -6708673.393      2150966.658      -488598.386
10 0 59803 12060.000000 0     -6412139.522      2352258.199     -1807315.001
10 0 59803 12240.000000 0     -5878353.238      2457093.102     -3059827.119
10 0 59803 12420.000000 0     -5129814.756      2455902.073     -4200466.235
10 0 59803 12600.000000 0     -4196946.137      2343681.060     -5187853.461
10 0 59803 12780.000000 0     -3116776.743      2120322.355     -5986363.648
10 0 59803 12960.000000 0     -1931418.918      1790733.291     -6567340.453
10 0 59803 13140.000000 0      -686402.408      1364741.958     -6910040.652
10 0 59803 13320.000000 0       571061.788       856797.943     -7002289.102
10 0 59803 13500.000000 0      1793826.239       285484.838     -6840854.103
10 0 59803 13680.000000 0      2936524.180      -327144.154     -6431544.189
10 0 59803 13860.000000 0      3957207.912      -956390.040     -5789017.876
10 0 59803 14040.000000 0      4818862.865     -1575867.425     -4936313.085
10 0 59803 14220.000000 0      5490758.085     -2158575.657     -3904100.820
10 0 59803 14400.000000 0      5949584.295     -2678045.901     -2729660.926
10 0 59803 14580.000000 0      6180327.081     -3109516.587     -1455596.169
10 0 59803 14760.000000 0      6176826.029     -3431084.010      -128316.999
10 0 59803 14940.000000 0      5941984.149     -3624770.758      1203651.244
10 0 59803 15120.000000 0      5487606.260     -3677454.929      2491475.498
10 0 59803 15300.000000 0      4833859.021     -3581602.779      3687857.218
10 0 59803 15480.000000 0      4008382.215     -3335762.772      4748816.614
10 0 59803 15660.000000 0      3045101.149     -2944798.535      5635345.384
10 0 59803 15840.000000 0      1982794.609     -2419846.270      6314857.794
10 0 59803 16020.000000 0       863495.792     -1777999.729      6762383.544
10 0 59803 16200.000000 0      -269201.836     -1041741.101      6961468.687
10 0 59803 16380.000000 0     -1371862.543      -238138.526      6904762.904
10 0 59803 16560.000000 0     -2402886.658       602160.109      6594284.221
10 0 59803 16740.000000 0     -3324095.172      1446104.322      6041357.244
10 0 59803 16920.000000 0     -4102168.411      2259549.282      5266223.733
10 0 59803 17100.000000 0     -4709890.581      3008651.357      4297330.059
10 0 59803 17280.000000 0     -5127148.449      3661296.831      3170298.548
10 0 59803 17460.000000 0     -5341635.858      4188498.637      1926613.688
10 0 59803 17640.000000 0     -5349232.045      4565698.491       612067.972
10 0 59803 17820.000000 0     -5154028.936      4773902.131      -724977.134
10 0 59803 18000.000000 0     -4768005.796      4800585.648     -2035433.363
10 0 59803 18180.000000 0     -4210367.207      4640327.445     -3271350.046
10 0 59803 18360.000000 0     -3506583.416      4295127.926     -4387705.943
10 0 59803 18540.000000 0     -2687195.892      3774412.926     -5344044.314
10 0 59803 18720.000000 0     -1786464.463      3094737.444     -6105891.979
10 0 59803 18900.000000 0      -840922.930      2279213.586     -6645931.543
10 0 59803 19080.000000 0       112096.736      1356688.849     -6944895.657
10 0 59803 19260.000000 0      1035908.546       360717.884     -6992174.503
10 0 59803 19440.000000 0      1895844.270      -671638.286     -6786142.690
10 0 59803 19620.000000 0      2660514.943     -1701154.745     -6334199.390
10 0 59803 19800.000000 0      3302926.443     -2687886.537     -5652528.717
10 0 59803 19980.000000 0      3801425.585     -3592681.304     -4765585.525
10 0 59803 20160.000000 0      4140445.092     -4378719.785     -3705294.361
10 0 59803 20340.000000 0      4311013.454     -5013017.480     -2509976.333
10 0 59803 20520.000000 0      4311014.158     -5467834.814     -1223024.534
10 0 59803 20700.000000 0      4145166.939     -5721925.616       108647.285
10 0 59803 20880.000000 0      3824722.107     -5761550.244      1436326.039
10 0 59803 21060.000000 0      3366877.148     -5581194.376      2711319.921
10 0 59803 21240.000000 0      2793938.156     -5183945.497      3886795.404
10 0 59803 21420.000000 0      2132271.780     -4581508.645      4919542.541
10 0 59803 21600.000000 0      1411105.160     -3793858.809      5771595.477
10 0 59803 21780.000000 0       661232.448     -2848547.114      6411641.819
10 0 59803 21960.000000 0       -86310.530     -1779695.731      6816164.407
10 0 59803 22140.000000 0      -801537.580      -626734.290      6970284.619
10 0 59803 22320.000000 0     -1456719.820       567076.710      6868297.566
10 0 59803 22500.000000 0     -2027469.247      1756286.646      6513881.124
10 0 59803 22680.000000 0     -2493659.301      2895000.086      5919974.081
10 0 59803 22860.000000 0     -2840150.744      3938669.230      5108327.151
10 0 59803 23040.000000 0     -3057299.388      4845871.693      4108733.903
10 0 59803 23220.000000 0     -3141224.887      5580004.857      2957952.247
10 0 59803 23400.000000 0     -3093823.843      6110817.304      1698343.234
10 0 59803 23580.000000 0     -2922526.013      6415698.479       376278.514
10 0 59803 23760.000000 0     -2639804.825      6480664.154      -959618.479
10 0 59803 23940.000000 0     -2262468.776      6300982.610     -2260327.417
10 0 59803 24120.000000 0     -1810766.603      5881396.007     -3478293.234
10 0 59803 24300.000000 0     -1307361.831      5235938.245     -4569188.282
10 0 59803 24480.000000 0      -776242.382      4387382.487     -5493511.329
10 0 59803 24660.000000 0      -241617.825      3366356.908     -6217969.146
10 0 59803 24840.000000 0       273147.415      2210175.458     -6716604.445
10 0 59803 25020.000000 0       746517.032       961440.657     -6971639.631
10 0 59803 25200.000000 0      1159646.702      -333519.505     -6974036.207
10 0 59803 25380.000000 0      1497104.216     -1626335.474     -6723768.111
10 0 59803 25560.000000 0      1747425.232     -2868348.747     -6229810.048
10 0 59803 25740.000000 0      1903494.814     -4012389.448     -5509852.734
10 0 59803 25920.000000 0      1962743.347     -5014543.260     -4589737.636
10 0 59803 26100.000000 0      1927148.651     -5835839.625     -3502606.115
10 0 59803 26280.000000 0      1803041.731     -6443804.408     -2287782.767
10 0 59803 26460.000000 0      1600717.873     -6813809.553      -989405.226
10 0 59803 26640.000000 0      1333868.088     -6930144.801       345161.329
10 0 59803 26820.000000 0      1018854.173     -6786747.251      1667068.469
10 0 59803 27000.000000 0       673860.517     -6387541.346      2927813.817
10 0 59803 27180.000000 0       317966.222     -5746358.054      4081075.876
10 0 59803 27360.000000 0       -29816.413     -4886436.895      5084459.582
10 0 59803 27540.000000 0      -351482.603     -3839543.230      5901081.830
10 0 59803 27720.000000 0      -630906.406     -2644741.266      6500936.201
10 0 59803 27900.000000 0      -854602.414     -1346883.775      6861982.435
10 0 59803 28080.000000 0     -1012345.621         5104.520      6970936.185
10 0 59803 28260.000000 0     -1097626.157      1360094.955      6823748.889
10 0 59803 28440.000000 0     -1107918.606      2666708.361      6425758.426
10 0 59803 28620.000000 0     -1044756.161      3875284.446      5791509.142
10 0 59803 28800.000000 0      -913609.427      4939801.210      4944243.847
10 0 59803 28980.000000 0      -723573.099      5819676.258      3915076.215
10 0 59803 29160.000000 0      -486873.306      6481375.159      2741858.581
10 0 59803 29340.000000 0      -218219.273      6899758.459      1467782.197
10 0 59803 29520.000000 0        65977.007      7059092.822       139743.986
10 0 59803 29700.000000 0       348471.092      6953665.149     -1193437.042
10 0 59803 29880.000000 0       612096.354      6587971.631     -2482878.981
10 0 59803 30060.000000 0       840659.709      5976471.201     -3681478.263
10 0 59803 30240.000000 0      1019781.137      5142934.928     -4745649.558
10 0 59803 30420.000000 0      1137637.140      4119431.723     -5636895.448
10 0 59803 30600.000000 0      1185572.092      2945013.050     -6323146.710
10 0 59803 30780.000000 0      1158551.183      1664168.437     -6779838.761
10 0 59803 30960.000000 0      1055441.144       325124.876     -6990703.815
10 0 59803 31140.000000 0       879112.565     -1021946.199     -6948280.188
10 0 59803 31320.000000 0       636361.187     -2326761.616     -6654133.716
10 0 59803 31500.000000 0       337653.556     -3540742.492     -6118799.810
10 0 59803 31680.000000 0        -3297.907     -4618780.089     -5361451.710
10 0 59803 31860.000000 0      -370118.243     -5520898.384     -4409282.501
10 0 59803 32040.000000 0      -744494.798     -6213759.524     -3296610.606
10 0 59803 32220.000000 0     -1107019.841     -6671953.416     -2063714.771
10 0 59803 32400.000000 0     -1438116.260     -6879009.774      -755423.476
10 0 59803 32580.000000 0     -1719003.442     -6828074.053       580504.375
10 0 59803 32760.000000 0     -1932655.407     -6522198.162      1895144.635
10 0 59803 32940.000000 0     -2064701.088     -5974221.956      3140244.279
10 0 59803 33120.000000 0     -2104214.551     -5206241.973      4270045.735
10 0 59803 33300.000000 0     -2044350.835     -4248695.007      5243011.004
10 0 59803 33480.000000 0     -1882797.960     -3139109.489      6023373.721
99
